start=new Date('2022-03-12T00:00:00.000Z').valueOf();
sats=[{"INCLINATION":"53.2086","REF_FRAME":"TEME","RA_OF_ASC_NODE":"227.8366","SITE":"AFETR","CENTER_NAME":"EARTH","GP_ID":"198521670","BSTAR":"0.00197890000000","TLE_LINE2":"2 49732  53.2086 227.8366 0002217  61.8031 296.9601 15.08837867  3599","PERIOD":"95.438","APOAPSIS":"541.286","OBJECT_ID":"2021-115J","FILE":"3355378","OBJECT_NAME":"STARLINK-3246","MEAN_ANOMALY":"296.9601","MEAN_MOTION":"15.08837867","TLE_LINE1":"1 49732U 21115J   22070.91667824  .00031345  00000-0  19789-2 0  9991","MEAN_MOTION_DOT":"0.00031345","LAUNCH_DATE":"2021-12-02","SEMIMAJOR_AXIS":"6917.887","PERIAPSIS":"538.218","EPOCH":"2022-03-11T22:00:00.999936","EPHEMERIS_TYPE":"0","DECAY_DATE":null,"TIME_SYSTEM":"UTC","ARG_OF_PERICENTER":"61.8031","COUNTRY_CODE":"US","NORAD_CAT_ID":"49732","ECCENTRICITY":"0.00022170","OBJECT_TYPE":"PAYLOAD","ELEMENT_SET_NO":"999","CLASSIFICATION_TYPE":"U","MEAN_MOTION_DDOT":"0.0000000000000","REV_AT_EPOCH":"359","MEAN_ELEMENT_THEORY":"SGP4","RCS_SIZE":"LARGE"},{"SITE":"AFETR","REF_FRAME":"TEME","RA_OF_ASC_NODE":"227.8292","INCLINATION":"53.2122","MEAN_ANOMALY":"343.7024","OBJECT_NAME":"STARLINK-3252","FILE":"3355378","OBJECT_ID":"2021-115K","APOAPSIS":"541.773","TLE_LINE2":"2 49733  53.2122 227.8292 0002848  55.1015 343.7024 15.08821230  3594","PERIOD":"95.439","BSTAR":"0.00282250000000","GP_ID":"198521421","CENTER_NAME":"EARTH","TLE_LINE1":"1 49733U 21115K   22070.91667824  .00044897  00000-0  28225-2 0  9993","MEAN_MOTION":"15.08821230","PERIAPSIS":"537.833","SEMIMAJOR_AXIS":"6917.938","LAUNCH_DATE":"2021-12-02","MEAN_MOTION_DOT":"0.00044897","DECAY_DATE":null,"EPHEMERIS_TYPE":"0","EPOCH":"2022-03-11T22:00:00.999936","NORAD_CAT_ID":"49733","COUNTRY_CODE":"US","ARG_OF_PERICENTER":"55.1015","TIME_SYSTEM":"UTC","CLASSIFICATION_TYPE":"U","ELEMENT_SET_NO":"999","OBJECT_TYPE":"PAYLOAD","ECCENTRICITY":"0.00028480","RCS_SIZE":"LARGE","MEAN_ELEMENT_THEORY":"SGP4","REV_AT_EPOCH":"359","MEAN_MOTION_DDOT":"0.0000000000000"},{"ECCENTRICITY":"0.00018890","OBJECT_TYPE":"PAYLOAD","ELEMENT_SET_NO":"999","CLASSIFICATION_TYPE":"U","MEAN_MOTION_DDOT":"0.0000000000000","REV_AT_EPOCH":"358","MEAN_ELEMENT_THEORY":"SGP4","RCS_SIZE":"LARGE","EPOCH":"2022-03-11T22:00:00.999936","EPHEMERIS_TYPE":"0","DECAY_DATE":null,"TIME_SYSTEM":"UTC","ARG_OF_PERICENTER":"47.2587","COUNTRY_CODE":"US","NORAD_CAT_ID":"49734","TLE_LINE1":"1 49734U 21115L   22070.91667824  .00004889  00000-0  32491-3 0  9992","MEAN_MOTION":"15.08853830","MEAN_MOTION_DOT":"0.00004889","LAUNCH_DATE":"2021-12-02","SEMIMAJOR_AXIS":"6917.838","PERIAPSIS":"538.396","INCLINATION":"53.2156","REF_FRAME":"TEME","RA_OF_ASC_NODE":"217.7913","SITE":"AFETR","GP_ID":"198520669","CENTER_NAME":"EARTH","TLE_LINE2":"2 49734  53.2156 217.7913 0001889  47.2587 246.4956 15.08853830  3583","BSTAR":"0.00032491000000","PERIOD":"95.437","APOAPSIS":"541.010","OBJECT_ID":"2021-115L","OBJECT_NAME":"STARLINK-3238","FILE":"3355378","MEAN_ANOMALY":"246.4956"},{"MEAN_MOTION":"15.08854244","TLE_LINE1":"1 49735U 21115M   22070.91667824  .00000215  00000-0  31598-4 0  9990","LAUNCH_DATE":"2021-12-02","MEAN_MOTION_DOT":"0.00000215","SEMIMAJOR_AXIS":"6917.837","PERIAPSIS":"537.806","REF_FRAME":"TEME","RA_OF_ASC_NODE":"227.8273","INCLINATION":"53.2102","SITE":"AFETR","APOAPSIS":"541.598","TLE_LINE2":"2 49735  53.2102 227.8273 0002741  54.2192 324.5389 15.08854244  3593","BSTAR":"0.00003159800000","PERIOD":"95.437","CENTER_NAME":"EARTH","GP_ID":"198520919","MEAN_ANOMALY":"324.5389","OBJECT_NAME":"STARLINK-3113","FILE":"3355378","OBJECT_ID":"2021-115M","OBJECT_TYPE":"PAYLOAD","ECCENTRICITY":"0.00027410","CLASSIFICATION_TYPE":"U","ELEMENT_SET_NO":"999","REV_AT_EPOCH":"359","MEAN_MOTION_DDOT":"0.0000000000000","RCS_SIZE":"LARGE","MEAN_ELEMENT_THEORY":"SGP4","EPHEMERIS_TYPE":"0","EPOCH":"2022-03-11T22:00:00.999936","DECAY_DATE":null,"NORAD_CAT_ID":"49735","COUNTRY_CODE":"US","ARG_OF_PERICENTER":"54.2192","TIME_SYSTEM":"UTC"},{"SITE":"AFETR","INCLINATION":"53.2154","RA_OF_ASC_NODE":"217.7925","REF_FRAME":"TEME","FILE":"3355378","OBJECT_NAME":"STARLINK-3148","MEAN_ANOMALY":"212.1121","OBJECT_ID":"2021-115N","APOAPSIS":"541.048","GP_ID":"198521171","CENTER_NAME":"EARTH","TLE_LINE2":"2 49736  53.2154 217.7925 0001927  41.6567 212.1121 15.08849894  3584","BSTAR":"0.00057659000000","PERIOD":"95.437","MEAN_MOTION":"15.08849894","TLE_LINE1":"1 49736U 21115N   22070.91667824  .00008903  00000-0  57659-3 0  9998","SEMIMAJOR_AXIS":"6917.850","PERIAPSIS":"538.382","MEAN_MOTION_DOT":"0.00008903","LAUNCH_DATE":"2021-12-02","DECAY_DATE":null,"EPHEMERIS_TYPE":"0","EPOCH":"2022-03-11T22:00:00.999936","NORAD_CAT_ID":"49736","ARG_OF_PERICENTER":"41.6567","TIME_SYSTEM":"UTC","COUNTRY_CODE":"US","CLASSIFICATION_TYPE":"U","ELEMENT_SET_NO":"999","OBJECT_TYPE":"PAYLOAD","ECCENTRICITY":"0.00019270","RCS_SIZE":"LARGE","MEAN_ELEMENT_THEORY":"SGP4","REV_AT_EPOCH":"358","MEAN_MOTION_DDOT":"0.0000000000000"},{"EPOCH":"2022-03-11T22:00:00.999936","EPHEMERIS_TYPE":"0","DECAY_DATE":null,"TIME_SYSTEM":"UTC","ARG_OF_PERICENTER":"42.5675","COUNTRY_CODE":"US","NORAD_CAT_ID":"49737","ECCENTRICITY":"0.00018250","OBJECT_TYPE":"PAYLOAD","ELEMENT_SET_NO":"999","CLASSIFICATION_TYPE":"U","MEAN_MOTION_DDOT":"0.0000000000000","REV_AT_EPOCH":"1642","MEAN_ELEMENT_THEORY":"SGP4","RCS_SIZE":"LARGE","INCLINATION":"53.2169","REF_FRAME":"TEME","RA_OF_ASC_NODE":"217.7929","SITE":"AFETR","GP_ID":"198496151","CENTER_NAME":"EARTH","TLE_LINE2":"2 49737  53.2169 217.7929 0001825  42.5675 231.1943 15.08861185 16429","BSTAR":"-0.00116180000000","PERIOD":"95.436","APOAPSIS":"540.943","OBJECT_ID":"2021-115P","FILE":"3355308","OBJECT_NAME":"STARLINK-3225","MEAN_ANOMALY":"231.1943","MEAN_MOTION":"15.08861185","TLE_LINE1":"1 49737U 21115P   22070.91667824 -.00018742  00000-0 -11618-2 0  9997","MEAN_MOTION_DOT":"-0.00018742","LAUNCH_DATE":"2021-12-02","SEMIMAJOR_AXIS":"6917.816","PERIAPSIS":"538.418"},{"RCS_SIZE":"LARGE","MEAN_ELEMENT_THEORY":"SGP4","MEAN_MOTION_DDOT":"0.0000000000000","REV_AT_EPOCH":"358","ELEMENT_SET_NO":"999","CLASSIFICATION_TYPE":"U","ECCENTRICITY":"0.00018880","OBJECT_TYPE":"PAYLOAD","TIME_SYSTEM":"UTC","ARG_OF_PERICENTER":"37.0475","COUNTRY_CODE":"US","NORAD_CAT_ID":"49738","DECAY_DATE":null,"EPOCH":"2022-03-11T22:00:00.999936","EPHEMERIS_TYPE":"0","SEMIMAJOR_AXIS":"6917.861","PERIAPSIS":"538.420","MEAN_MOTION_DOT":"0.00025385","LAUNCH_DATE":"2021-12-02","MEAN_MOTION":"15.08846394","TLE_LINE1":"1 49738U 21115Q   22070.91667824  .00025385  00000-0  16070-2 0  9994","OBJECT_ID":"2021-115Q","OBJECT_NAME":"STARLINK-3143","FILE":"3355378","MEAN_ANOMALY":"196.6819","CENTER_NAME":"EARTH","GP_ID":"198520170","TLE_LINE2":"2 49738  53.2160 217.8007 0001888  37.0475 196.6819 15.08846394  3580","PERIOD":"95.437","BSTAR":"0.00160700000000","APOAPSIS":"541.032","SITE":"AFETR","INCLINATION":"53.2160","REF_FRAME":"TEME","RA_OF_ASC_NODE":"217.8007"},{"MEAN_MOTION":"15.08856423","TLE_LINE1":"1 49739U 21115R   22070.91667824 -.00001212  00000-0 -58005-4 0  9996","SEMIMAJOR_AXIS":"6917.830","PERIAPSIS":"537.906","LAUNCH_DATE":"2021-12-02","MEAN_MOTION_DOT":"-0.00001212","SITE":"AFETR","REF_FRAME":"TEME","RA_OF_ASC_NODE":"227.8456","INCLINATION":"53.2058","OBJECT_ID":"2021-115R","MEAN_ANOMALY":"283.7448","FILE":"3355308","OBJECT_NAME":"STARLINK-3155","BSTAR":"-0.00005800500000","TLE_LINE2":"2 49739  53.2058 227.8456 0002586  55.0094 283.7448 15.08856423 16279","PERIOD":"95.437","GP_ID":"198496146","CENTER_NAME":"EARTH","APOAPSIS":"541.484","ELEMENT_SET_NO":"999","CLASSIFICATION_TYPE":"U","ECCENTRICITY":"0.00025860","OBJECT_TYPE":"PAYLOAD","MEAN_ELEMENT_THEORY":"SGP4","RCS_SIZE":"LARGE","MEAN_MOTION_DDOT":"0.0000000000000","REV_AT_EPOCH":"1627","DECAY_DATE":null,"EPOCH":"2022-03-11T22:00:00.999936","EPHEMERIS_TYPE":"0","COUNTRY_CODE":"US","ARG_OF_PERICENTER":"55.0094","TIME_SYSTEM":"UTC","NORAD_CAT_ID":"49739"},{"OBJECT_TYPE":"PAYLOAD","ECCENTRICITY":"0.00021250","CLASSIFICATION_TYPE":"U","ELEMENT_SET_NO":"999","REV_AT_EPOCH":"1641","MEAN_MOTION_DDOT":"0.0000000000000","MEAN_ELEMENT_THEORY":"SGP4","RCS_SIZE":"LARGE","EPHEMERIS_TYPE":"0","EPOCH":"2022-03-11T22:00:00.999936","DECAY_DATE":null,"NORAD_CAT_ID":"49740","COUNTRY_CODE":"US","ARG_OF_PERICENTER":"43.3795","TIME_SYSTEM":"UTC","TLE_LINE1":"1 49740U 21115S   22070.91667824 -.00015333  00000-0 -94681-3 0  9996","MEAN_MOTION":"15.08859045","LAUNCH_DATE":"2021-12-02","MEAN_MOTION_DOT":"-0.00015333","PERIAPSIS":"538.217","SEMIMAJOR_AXIS":"6917.822","REF_FRAME":"TEME","RA_OF_ASC_NODE":"217.8150","INCLINATION":"53.2181","SITE":"AFETR","APOAPSIS":"541.157","TLE_LINE2":"2 49740  53.2181 217.8150 0002125  43.3795 130.3909 15.08859045 16413","PERIOD":"95.436","BSTAR":"-0.00094681000000","CENTER_NAME":"EARTH","GP_ID":"198495485","MEAN_ANOMALY":"130.3909","FILE":"3355270","OBJECT_NAME":"STARLINK-3226","OBJECT_ID":"2021-115S"},{"ARG_OF_PERICENTER":"48.7649","TIME_SYSTEM":"UTC","COUNTRY_CODE":"US","NORAD_CAT_ID":"49741","DECAY_DATE":null,"EPOCH":"2022-03-11T22:00:00.999936","EPHEMERIS_TYPE":"0","RCS_SIZE":"LARGE","MEAN_ELEMENT_THEORY":"SGP4","MEAN_MOTION_DDOT":"0.0000000000000","REV_AT_EPOCH":"1641","ELEMENT_SET_NO":"999","CLASSIFICATION_TYPE":"U","ECCENTRICITY":"0.00018090","OBJECT_TYPE":"PAYLOAD","OBJECT_ID":"2021-115T","OBJECT_NAME":"STARLINK-3244","FILE":"3355350","MEAN_ANOMALY":"164.9100","CENTER_NAME":"EARTH","GP_ID":"198496936","TLE_LINE2":"2 49741  53.2173 217.8128 0001809  48.7649 164.9100 15.08851200 16416","PERIOD":"95.437","BSTAR":"0.00169570000000","APOAPSIS":"540.963","SITE":"AFETR","INCLINATION":"53.2173","RA_OF_ASC_NODE":"217.8128","REF_FRAME":"TEME","PERIAPSIS":"538.460","SEMIMAJOR_AXIS":"6917.846","MEAN_MOTION_DOT":"0.00026811","LAUNCH_DATE":"2021-12-02","MEAN_MOTION":"15.08851200","TLE_LINE1":"1 49741U 21115T   22070.91667824  .00026811  00000-0  16957-2 0  9997"}];
